NOAA 9                  
1 15427U 84123A   26068.99811847  .00000128  00000+0  86742-4 0  9997
2 15427  99.1096  93.2921 0013664 270.8199 146.1556 14.17039071129370
RESOURCESAT-2           
1 37387U 11015A   26068.92331954 -.00000205  00000+0 -73226-4 0  9996
2 37387  98.7721 137.0095 0006427 138.2632 221.9036 14.21500709772078
