[{"OBJECT_NAME":"RESOURCESAT-2","OBJECT_ID":"2011-015A","EPOCH":"2026-03-09T22:09:34.808256","MEAN_MOTION":14.21500709,"ECCENTRICITY":0.00064275,"INCLINATION":98.7721,"RA_OF_ASC_NODE":137.0095,"ARG_OF_PERICENTER":138.2632,"MEAN_ANOMALY":221.9036,"EPHEMERIS_TYPE":0,"CLASSIFICATION_TYPE":"U","NORAD_CAT_ID":37387,"ELEMENT_SET_NO":999,"REV_AT_EPOCH":77207,"BSTAR":-7.3226423e-5,"MEAN_MOTION_DOT":-2.05e-6,"MEAN_MOTION_DDOT":0},{"OBJECT_NAME":"NOAA 9","OBJECT_ID":"1984-123A","EPOCH":"2026-03-09T23:57:17.435808","MEAN_MOTION":14.17039071,"ECCENTRICITY":0.00136644,"INCLINATION":99.1096,"RA_OF_ASC_NODE":93.2921,"ARG_OF_PERICENTER":270.8199,"MEAN_ANOMALY":146.1556,"EPHEMERIS_TYPE":0,"CLASSIFICATION_TYPE":"U","NORAD_CAT_ID":15427,"ELEMENT_SET_NO":999,"REV_AT_EPOCH":12937,"BSTAR":8.6741531e-5,"MEAN_MOTION_DOT":1.28e-6,"MEAN_MOTION_DDOT":0}]
